{"type": "FeatureCollection", "features": [ {"type": "Feature", "properties": {"norad_id": 33728, "name": "FENGYUN 1C DEB", "group": "fengyun-1c-debris", "lat": -33.52437053262433, "lon": -133.61260958017854, "alt_km": 503.09575053338995, "timestamp": "2025-12-21T07:34:34.802935+00:00", "meta": {"OBJECT_NAME": "FENGYUN 1C DEB", "OBJECT_ID": "1999-025DHR", "EPOCH": "2025-12-19T03:08:31.669440", "MEAN_MOTION": 14.92712258, "ECCENTRICITY": 0.01477777, "INCLINATION": 98.9792, "RA_OF_ASC_NODE": 49.9098, "ARG_OF_PERICENTER": 194.4676, "MEAN_ANOMALY": 165.2288, "EPHEMERIS_TYPE": 0, "CLASSIFICATION_TYPE": "U", "NORAD_CAT_ID": 33728, "ELEMENT_SET_NO": 999, "REV_AT_EPOCH": 98395, "BSTAR": 0.00039692023, "MEAN_MOTION_DOT": 4.984e-05, "MEAN_MOTION_DDOT": 0}, "tle": {"line1": "1 33728U 99025DHR 25353.13092210  .00004984  00000+0  39692-3 0  9990", "line2": "2 33728  98.9792  49.9098 0147777 194.4676 165.2288 14.92712258983955"}}, "geometry": {"type": "Point", "coordinates": [-133.61260958017854, -33.52437053262433]}}, {"type": "Feature", "properties": {"norad_id": 33730, "name": "FENGYUN 1C DEB", "group": "fengyun-1c-debris", "lat": -53.79604119273641, "lon": 66.48677078495689, "alt_km": 667.0505097787354, "timestamp": "2025-12-21T07:34:34.802944+00:00", "meta": {"OBJECT_NAME": "FENGYUN 1C DEB", "OBJECT_ID": "1999-025DHT", "EPOCH": "2025-12-17T10:18:00.572256", "MEAN_MOTION": 14.63540792, "ECCENTRICITY": 0.00393712, "INCLINATION": 99.0546, "RA_OF_ASC_NODE": 49.6389, "ARG_OF_PERICENTER": 356.5197, "MEAN_ANOMALY": 3.5723, "EPHEMERIS_TYPE": 0, "CLASSIFICATION_TYPE": "U", "NORAD_CAT_ID": 33730, "ELEMENT_SET_NO": 999, "REV_AT_EPOCH": 95748, "BSTAR": 0.0011805307, "MEAN_MOTION_DOT": 6.139e-05, "MEAN_MOTION_DDOT": 0}, "tle": {"line1": "1 33730U 99025DHT 25351.42917329  .00006139  00000+0  11805-2 0  9999", "line2": "2 33730  99.0546  49.6389 0039371 356.5197   3.5723 14.63540792957483"}}, "geometry": {"type": "Point", "coordinates": [66.48677078495689, -53.79604119273641]}}, {"type": "Feature", "properties": {"norad_id": 33731, "name": "FENGYUN 1C DEB", "group": "fengyun-1c-debris", "lat": -50.112642975408164, "lon": -173.74788817510643, "alt_km": 1006.1148591501333, "timestamp": "2025-12-21T07:34:34.802953+00:00", "meta": {"OBJECT_NAME": "FENGYUN 1C DEB", "OBJECT_ID": "1999-025DHU", "EPOCH": "2025-12-14T07:32:51.114336", "MEAN_MOTION": 13.95346461, "ECCENTRICITY": 0.01291818, "INCLINATION": 99.4471, "RA_OF_ASC_NODE": 10.5718, "ARG_OF_PERICENTER": 51.9301, "MEAN_ANOMALY": 309.3431, "EPHEMERIS_TYPE": 0, "CLASSIFICATION_TYPE": "U", "NORAD_CAT_ID": 33731, "ELEMENT_SET_NO": 999, "REV_AT_EPOCH": 90471, "BSTAR": 0.0013457717, "MEAN_MOTION_DOT": 1.908e-05, "MEAN_MOTION_DDOT": 0}, "tle": {"line1": "1 33731U 99025DHU 25348.31448049  .00001908  00000+0  13458-2 0  9997", "line2": "2 33731  99.4471  10.5718 0129181  51.9301 309.3431 13.95346461904712"}}, "geometry": {"type": "Point", "coordinates": [-173.74788817510643, -50.112642975408164]}}, {"type": "Feature", "properties": {"norad_id": 33733, "name": "FENGYUN 1C DEB", "group": "fengyun-1c-debris", "lat": -51.28588810545301, "lon": -110.49035708167796, "alt_km": 790.5271657098529, "timestamp": "2025-12-21T07:34:34.802963+00:00", "meta": {"OBJECT_NAME": "FENGYUN 1C DEB", "OBJECT_ID": "1999-025DHW", "EPOCH": "2025-12-14T05:17:42.025920", "MEAN_MOTION": 14.31053637, "ECCENTRICITY": 0.00804283, "INCLINATION": 99.0978, "RA_OF_ASC_NODE": 73.616, "ARG_OF_PERICENTER": 166.2685, "MEAN_ANOMALY": 251.3146, "EPHEMERIS_TYPE": 0, "CLASSIFICATION_TYPE": "U", "NORAD_CAT_ID": 33733, "ELEMENT_SET_NO": 999, "REV_AT_EPOCH": 90469, "BSTAR": 0.0039221093, "MEAN_MOTION_DOT": 0.00010671, "MEAN_MOTION_DDOT": 0}, "tle": {"line1": "1 33733U 99025DHW 25348.22062530  .00010671  00000+0  39221-2 0  9999", "line2": "2 33733  99.0978  73.6160 0080428 166.2685 251.3146 14.31053637904695"}}, "geometry": {"type": "Point", "coordinates": [-110.49035708167796, -51.28588810545301]}}, {"type": "Feature", "properties": {"norad_id": 33737, "name": "FENGYUN 1C DEB", "group": "fengyun-1c-debris", "lat": -77.35231364678539, "lon": -130.6778385548537, "alt_km": 803.3069226853468, "timestamp": "2025-12-21T07:34:34.802973+00:00", "meta": {"OBJECT_NAME": "FENGYUN 1C DEB", "OBJECT_ID": "1999-025DJA", "EPOCH": "2025-12-20T11:33:34.449408", "MEAN_MOTION": 14.03028053, "ECCENTRICITY": 0.01284036, "INCLINATION": 98.3376, "RA_OF_ASC_NODE": 187.7515, "ARG_OF_PERICENTER": 261.1373, "MEAN_ANOMALY": 127.6514, "EPHEMERIS_TYPE": 0, "CLASSIFICATION_TYPE": "U", "NORAD_CAT_ID": 33737, "ELEMENT_SET_NO": 999, "REV_AT_EPOCH": 88849, "BSTAR": 0.0010504439, "MEAN_MOTION_DOT": 1.715e-05, "MEAN_MOTION_DDOT": 0}, "tle": {"line1": "1 33737U 99025DJA 25354.48164872  .00001715  00000+0  10504-2 0  9992", "line2": "2 33737  98.3376 187.7515 0128403 261.1373 127.6514 14.03028053888495"}}, "geometry": {"type": "Point", "coordinates": [-130.6778385548537, -77.35231364678539]}}, {"type": "Feature", "properties": {"norad_id": 33738, "name": "FENGYUN 1C DEB", "group": "fengyun-1c-debris", "lat": 79.91014557612652, "lon": -59.71571184507689, "alt_km": 900.4237153168488, "timestamp": "2025-12-21T07:34:34.802982+00:00", "meta": {"OBJECT_NAME": "FENGYUN 1C DEB", "OBJECT_ID": "1999-025DJB", "EPOCH": "2025-12-19T10:35:57.715008", "MEAN_MOTION": 13.99542452, "ECCENTRICITY": 0.0184532, "INCLINATION": 99.151, "RA_OF_ASC_NODE": 53.475, "ARG_OF_PERICENTER": 3.0137, "MEAN_ANOMALY": 12.1975, "EPHEMERIS_TYPE": 0, "CLASSIFICATION_TYPE": "U", "NORAD_CAT_ID": 33738, "ELEMENT_SET_NO": 999, "REV_AT_EPOCH": 89330, "BSTAR": 0.00041438, "MEAN_MOTION_DOT": 6.55e-06, "MEAN_MOTION_DDOT": 0}, "tle": {"line1": "1 33738U 99025DJB 25353.44164022  .00000655  00000+0  41438-3 0  9998", "line2": "2 33738  99.1510  53.4750 0184532   3.0137  12.1975 13.99542452893304"}}, "geometry": {"type": "Point", "coordinates": [-59.71571184507689, 79.91014557612652]}}, {"type": "Feature", "properties": {"norad_id": 33740, "name": "FENGYUN 1C DEB", "group": "fengyun-1c-debris", "lat": 15.39760906267543, "lon": -169.62412892161456, "alt_km": 851.1757986861012, "timestamp": "2025-12-21T07:34:34.802991+00:00", "meta": {"OBJECT_NAME": "FENGYUN 1C DEB", "OBJECT_ID": "1999-025DJD", "EPOCH": "2025-12-18T07:23:22.108128", "MEAN_MOTION": 14.12325643, "ECCENTRICITY": 0.00021877, "INCLINATION": 98.6868, "RA_OF_ASC_NODE": 5.0478, "ARG_OF_PERICENTER": 119.664, "MEAN_ANOMALY": 240.475, "EPHEMERIS_TYPE": 0, "CLASSIFICATION_TYPE": "U", "NORAD_CAT_ID": 33740, "ELEMENT_SET_NO": 999, "REV_AT_EPOCH": 90225, "BSTAR": 0.00012962131, "MEAN_MOTION_DOT": 1.96e-06, "MEAN_MOTION_DDOT": 0}, "tle": {"line1": "1 33740U 99025DJD 25352.30789477  .00000196  00000+0  12962-3 0  9992", "line2": "2 33740  98.6868   5.0478 0002187 119.6640 240.4750 14.12325643902254"}}, "geometry": {"type": "Point", "coordinates": [-169.62412892161456, 15.39760906267543]}}, {"type": "Feature", "properties": {"norad_id": 33741, "name": "FENGYUN 1C DEB", "group": "fengyun-1c-debris", "lat": 51.12743579633937, "lon": 99.27900745796198, "alt_km": 813.2059648443374, "timestamp": "2025-12-21T07:34:34.803000+00:00", "meta": {"OBJECT_NAME": "FENGYUN 1C DEB", "OBJECT_ID": "1999-025DJE", "EPOCH": "2025-12-20T17:21:28.699776", "MEAN_MOTION": 14.09870103, "ECCENTRICITY": 0.01285709, "INCLINATION": 98.5653, "RA_OF_ASC_NODE": 267.9394, "ARG_OF_PERICENTER": 65.7344, "MEAN_ANOMALY": 295.7197, "EPHEMERIS_TYPE": 0, "CLASSIFICATION_TYPE": "U", "NORAD_CAT_ID": 33741, "ELEMENT_SET_NO": 999, "REV_AT_EPOCH": 56975, "BSTAR": 0.0014103397, "MEAN_MOTION_DOT": 2.64e-05, "MEAN_MOTION_DDOT": 0}, "tle": {"line1": "1 33741U 99025DJE 25354.72324884  .00002640  00000+0  14103-2 0  9992", "line2": "2 33741  98.5653 267.9394 0128570  65.7344 295.7197 14.09870103569753"}}, "geometry": {"type": "Point", "coordinates": [99.27900745796198, 51.12743579633937]}}, {"type": "Feature", "properties": {"norad_id": 33745, "name": "FENGYUN 1C DEB", "group": "fengyun-1c-debris", "lat": 27.395218372873867, "lon": -142.46092538863118, "alt_km": 815.5806164635651, "timestamp": "2025-12-21T07:34:34.803009+00:00", "meta": {"OBJECT_NAME": "FENGYUN 1C DEB", "OBJECT_ID": "1999-025DJJ", "EPOCH": "2025-12-17T13:22:43.604832", "MEAN_MOTION": 14.22346964, "ECCENTRICITY": 0.00542183, "INCLINATION": 99.1148, "RA_OF_ASC_NODE": 28.8825, "ARG_OF_PERICENTER": 252.2828, "MEAN_ANOMALY": 107.2426, "EPHEMERIS_TYPE": 0, "CLASSIFICATION_TYPE": "U", "NORAD_CAT_ID": 33745, "ELEMENT_SET_NO": 999, "REV_AT_EPOCH": 66070, "BSTAR": 0.0010724416, "MEAN_MOTION_DOT": 2.374e-05, "MEAN_MOTION_DDOT": 0}, "tle": {"line1": "1 33745U 99025DJJ 25351.55744913  .00002374  00000+0  10724-2 0  9992", "line2": "2 33745  99.1148  28.8825 0054218 252.2828 107.2426 14.22346964660700"}}, "geometry": {"type": "Point", "coordinates": [-142.46092538863118, 27.395218372873867]}}, {"type": "Feature", "properties": {"norad_id": 33747, "name": "FENGYUN 1C DEB", "group": "fengyun-1c-debris", "lat": -77.27543259902464, "lon": 135.3905221917933, "alt_km": 835.1066221161982, "timestamp": "2025-12-21T07:34:34.803018+00:00", "meta": {"OBJECT_NAME": "FENGYUN 1C DEB", "OBJECT_ID": "1999-025DJL", "EPOCH": "2025-12-20T01:28:07.665312", "MEAN_MOTION": 14.17505011, "ECCENTRICITY": 0.00910261, "INCLINATION": 99.0962, "RA_OF_ASC_NODE": 88.9142, "ARG_OF_PERICENTER": 197.1954, "MEAN_ANOMALY": 162.6131, "EPHEMERIS_TYPE": 0, "CLASSIFICATION_TYPE": "U", "NORAD_CAT_ID": 33747, "ELEMENT_SET_NO": 999, "REV_AT_EPOCH": 90236, "BSTAR": 0.001836775, "MEAN_MOTION_DOT": 3.837e-05, "MEAN_MOTION_DDOT": 0}, "tle": {"line1": "1 33747U 99025DJL 25354.06119983  .00003837  00000+0  18368-2 0  9993", "line2": "2 33747  99.0962  88.9142 0091026 197.1954 162.6131 14.17505011902362"}}, "geometry": {"type": "Point", "coordinates": [135.3905221917933, -77.27543259902464]}}]}